IRIDIUM 36 [-]          
1 24967U 97056C   24088.47516802  .00001067  00000+0  35566-3 0  9991
2 24967  86.4026   0.1687 0002247  81.1499 278.9953 14.36701198388209
IRIDIUM 39 [-]          
1 25042U 97069D   24088.56531138  .00001525  00000+0  40634-3 0  9990
2 25042  86.3938  42.0338 0018322   1.1522 358.9720 14.47793922384455
IRIDIUM 38 [-]          
1 25043U 97069E   24088.43829503  .00001170  00000+0  38744-3 0  9998
2 25043  86.3938  60.5779 0003946 102.2357 257.9282 14.37138511381910
IRIDIUM 42 [-]          
1 25077U 97077A   24088.46549926  .00001112  00000+0  38036-3 0  9995
2 25077  86.3931  66.1942 0002749  97.9931 262.1578 14.35449441377233
IRIDIUM 44 [-]          
1 25078U 97077B   24088.43218992  .00001222  00000+0  38769-3 0  9994
2 25078  86.3959  49.3231 0003956  71.9705 288.1924 14.39275916379569
IRIDIUM 24 [-]          
1 25105U 97082B   24088.55036393  .00001043  00000+0  31782-3 0  9996
2 25105  86.3853 269.0137 0013490 106.6661 253.6020 14.41041921379014
IRIDIUM 51 [-]          
1 25262U 98018A   24088.51997720  .00024362  00000+0  11915-2 0  9990
2 25262  86.3867 270.1024 0153742 119.2973 242.3729 15.08188475379248
